{"spkid": "50843371", "covariance": {"epoch": "2458865.5", "elements": [{"title": "eccentricity", "value": ".5489654253417203", "units": null, "name": "e", "sigma": 5.98966068749535e-08, "label": "e"}, {"name": "q", "sigma": 3.56860034094888e-07, "units": "au", "value": ".7719180891054747", "title": "perihelion distance", "label": "q"}, {"label": "tp", "units": "TDB", "title": "time of perihelion passage", "value": "2458636.857118968044", "sigma": 2.07693808346235e-05, "name": "tp"}, {"label": "node", "sigma": 1.9963573163359e-06, "name": "om", "title": "longitude of the ascending node", "value": "302.1549337542331", "units": "deg"}, {"units": "deg", "title": "argument of perihelion", "value": "285.4230175540159", "sigma": 5.30102969039979e-05, "name": "w", "label": "peri"}, {"label": "i", "name": "i", "sigma": 1.81614090043741e-05, "title": "inclination", "value": "47.23464477079768", "units": "deg"}], "data": [["3.587603515132728E-15", "-8.494670630539591E-15", "-8.350307925413113E-14", "-1.241949853602163E-14", "-9.808053117190808E-13", "-1.035354837202375E-13"], ["-8.494670630539591E-15", "1.273490839342047E-13", "6.103289031338062E-12", "1.532011433553423E-13", "1.867688711350423E-11", "2.008284245892136E-12"], ["-8.350307925413113E-14", "6.103289031338062E-12", "4.313671802536247E-10", "9.655786318638098E-13", "9.917218437584323E-10", "2.192676105412449E-11"], ["-1.241949853602163E-14", "1.532011433553423E-13", "9.655786318638098E-13", "3.985442534487869E-12", "1.602224115989532E-11", "1.92772882901724E-11"], ["-9.808053117190808E-13", "1.867688711350423E-11", "9.917218437584323E-10", "1.602224115989532E-11", "2.810091577850012E-9", "2.390973970087011E-10"], ["-1.035354837202375E-13", "2.008284245892136E-12", "2.192676105412449E-11", "1.92772882901724E-11", "2.390973970087011E-10", "3.298367770241596E-10"]], "labels": ["e", "q", "tp", "node", "peri", "i"]}, "elements": [{"sigma": "6.0376E-8", "name": "e", "units": null, "title": "eccentricity", "value": ".5484911163497241", "label": "e"}, {"sigma": "7.3103E-7", "name": "a", "units": "au", "title": "semi-major axis", "value": "1.711725531355714", "label": "a"}, {"label": "q", "units": "au", "title": "perihelion distance", "value": ".7728592837780939", "name": "q", "sigma": "3.6079E-7"}, {"label": "i", "title": "inclination; angle with respect to x-y ecliptic plane", "value": "47.24144022498776", "units": "deg", "name": "i", "sigma": "1.816E-5"}, {"label": "node", "sigma": "2.0231E-6", "name": "om", "units": "deg", "title": "longitude of the ascending node", "value": "302.1070555715101"}, {"sigma": "5.2939E-5", "name": "w", "title": "argument of perihelion", "value": "285.4059380376523", "units": "deg", "label": "peri"}, {"title": "mean anomaly", "value": "48.47126734181473", "units": "deg", "sigma": ".00073055", "name": "ma", "label": "M"}, {"label": "tp", "name": "tp", "sigma": ".0015894", "value": "2461090.363443495066", "title": "time of perihelion passage", "units": "TDB"}, {"title": "sidereal orbital period", "value": "817.9930609648408", "units": "d", "name": "per", "sigma": ".00052401", "label": "period"}, {"name": "n", "sigma": "2.8193E-7", "units": "deg/d", "value": ".4401015328606481", "title": "mean motion", "label": "n"}, {"label": "Q", "name": "ad", "sigma": "1.132E-6", "title": "aphelion distance", "value": "2.650591778933335", "units": "au"}], "epoch": "2461200.5"}